NORAD_CAT_ID,OBJECT_NAME,OBJECT_TYPE,EPOCH,MEAN_MOTION,ECCENTRICITY,INCLINATION,RA_OF_ASC_NODE,ARG_OF_PERICENTER,MEAN_ANOMALY,BSTAR,MEAN_MOTION_DOT,MEAN_MOTION_DDOT,TLE_LINE0,TLE_LINE1,TLE_LINE2,SEMIMAJOR_AXIS,PERIOD,APOGEE,PERIGEE,DECAYED
49420.0,STARLINK-3110,PAYLOAD,2021-11-29 14:00:01,15.74418486,0.0002068,53.2176,53.6136,27.3023,133.4905,-0.0060782,-0.00817475,0.0,0 STARLINK-3110,1 49420U 21104N   21333.58334491 -.00817475  00000-0 -60782-2 0  9995,2 49420  53.2176  53.6136 0002068  27.3023 133.4905 15.74418486  3828,6724.4230000000025,91.462,347.67900000000014,344.898,0.0
49420.0,STARLINK-3110,PAYLOAD,2021-11-29 22:00:00,15.73783795,0.0001575,53.2174,51.9604,42.8889,207.9485,-0.0052872,-0.00701301,0.0,0 STARLINK-3110,1 49420U 21104N   21333.91667824 -.00701301  00000-0 -52872-2 0  9992,2 49420  53.2174  51.9604 0001575  42.8889 207.9485 15.73783795  3244,6726.231,91.499,349.156,347.037,0.0
49420.0,STARLINK-3110,PAYLOAD,2021-11-30 06:00:00,15.73207285,0.0001719,53.2175,50.3095,34.301,305.86,-3.3762e-05,-5.358e-05,0.0,0 STARLINK-3110,1 49420U 21104N   21334.25001157 -.00005358  00000-0 -33762-4 0  9999,2 49420  53.2175  50.3095 0001719  34.3010 305.8600 15.73207285  3921,6727.874,91.533,350.896,348.583,0.0
49420.0,STARLINK-3110,PAYLOAD,2021-11-30 10:00:00,15.73197694,0.0001816,53.2175,49.4855,27.9618,176.6698,8.4411e-05,0.00011241,0.0,0 STARLINK-3110,1 49420U 21104N   21334.41667824  .00011241  00000-0  84411-4 0  9999,2 49420  53.2175  49.4855 0001816  27.9618 176.6698 15.73197694  3321,6727.901999999999,91.533,350.98900000000015,348.545,0.0
49420.0,STARLINK-3110,PAYLOAD,2021-11-30 16:00:00,15.73147949,0.0001538,53.2184,48.2502,7.3885,173.9185,0.00058772,0.00082492,0.0,0 STARLINK-3110,1 49420U 21104N   21334.66667824  .00082492  00000-0  58772-3 0  9992,2 49420  53.2184  48.2502 0001538   7.3885 173.9185 15.73147949  3998,6728.044,91.536,350.9430000000001,348.874,0.0
49420.0,STARLINK-3110,PAYLOAD,2021-11-30 22:00:00,15.73203373,0.0001431999999999,53.2188,47.0115,8.5673,149.4077,-1.4865e-06,-8.29e-06,0.0,0 STARLINK-3110,1 49420U 21104N   21334.91667824 -.00000829  00000-0 -14865-5 0  9993,2 49420  53.2188  47.0115 0001432   8.5673 149.4077 15.73203373  3419,6727.886,91.533,350.714,348.787,0.0
49420.0,STARLINK-3110,PAYLOAD,2021-12-01 06:00:00,15.73204781,0.0001338,53.2184,45.3607,13.8704,233.0296,0.00047708,0.00066883,0.0,0 STARLINK-3110,1 49420U 21104N   21335.25001157  .00066883  00000-0  47708-3 0  9992,2 49420  53.2184  45.3607 0001338  13.8704 233.0296 15.73204781  4082,6727.882,91.533,350.647,348.846,0.0
49420.0,STARLINK-3110,PAYLOAD,2021-12-01 14:00:01,15.73213629,0.0001726,53.2191,43.7141,13.8542,322.0029,0.00038563,0.00053881,0.0,0 STARLINK-3110,1 49420U 21104N   21335.58334491  .00053881  00000-0  38563-3 0  9991,2 49420  53.2191  43.7141 0001726  13.8542 322.0029 15.73213629  4136,6727.856,91.532,350.8830000000001,348.56,0.0
49420.0,STARLINK-3110,PAYLOAD,2021-12-01 22:00:00,15.73262384,0.0001569,53.2188,42.0631,13.8584,50.981,0.00013508,0.00018429,0.0,0 STARLINK-3110,1 49420U 21104N   21335.91667824  .00018429  00000-0  13508-3 0  9998,2 49420  53.2188  42.0631 0001569  13.8584  50.9810 15.73262384  3573,6727.717,91.53,350.63800000000015,348.527,0.0
49420.0,STARLINK-3110,PAYLOAD,2021-12-02 14:00:01,15.7322932,0.0001999,53.219,38.7659,25.4631,217.4441,-0.00011874,-0.00017274,0.0,0 STARLINK-3110,1 49420U 21104N   21336.58334491 -.00017274  00000-0 -11874-3 0  9996,2 49420  53.2190  38.7659 0001999  25.4631 217.4441 15.73229320  4290,6727.812,91.531,351.021,348.332,0.0
49420.0,STARLINK-3110,PAYLOAD,2021-12-02 22:00:00,15.73230594,0.0001825,53.2191,37.1147,28.497,303.3496,-0.00035348,-0.00050003,0.0,0 STARLINK-3110,1 49420U 21104N   21336.91667824 -.00050003  00000-0 -35348-3 0  9991,2 49420  53.2191  37.1147 0001825  28.4970 303.3496 15.73230594  3720,6727.808000000001,91.531,350.901,348.445,0.0
49420.0,STARLINK-3110,PAYLOAD,2021-12-03 04:00:00,15.73181472,0.0001792,53.2193,35.8769,30.7447,277.793,-0.00014246,-0.0002055,0.0,0 STARLINK-3110,1 49420U 21104N   21337.16667824 -.00020550  00000-0 -14246-3 0  9997,2 49420  53.2193  35.8769 0001792  30.7447 277.7930 15.73181472  4385,6727.948,91.534,351.019,348.607,0.0
49420.0,STARLINK-3110,PAYLOAD,2021-12-03 14:00:01,15.7314087,0.0002095,53.2192,33.8177,24.4435,125.2193,0.00053093,0.00074368,0.0,0 STARLINK-3110,1 49420U 21104N   21337.58334491  .00074368  00000-0  53093-3 0  9991,2 49420  53.2192  33.8177 0002095  24.4435 125.2193 15.73140870  3743,6728.064,91.537,351.338,348.519,0.0
49420.0,STARLINK-3110,PAYLOAD,2021-12-03 22:00:00,15.73180062,0.0001928,53.219,32.1666,27.0173,211.5328,0.00016769,0.00022959,0.0,0 STARLINK-3110,1 49420U 21104N   21337.91667824  .00022959  00000-0  16769-3 0  9995,2 49420  53.2190  32.1666 0001928  27.0173 211.5328 15.73180062  4509,6727.9519999999975,91.534,351.11400000000015,348.52,0.0
49420.0,STARLINK-3110,PAYLOAD,2021-12-04 06:00:00,15.73227393,0.0001928,53.2189,30.5174,29.4658,297.9996,3.0258e-05,3.632e-05,0.0,0 STARLINK-3110,1 49420U 21104N   21338.25001157  .00003632  00000-0  30258-4 0  9991,2 49420  53.2189  30.5174 0001928  29.4658 297.9996 15.73227393  3762,6727.816999999999,91.532,350.97900000000016,348.385,0.0
49420.0,STARLINK-3110,PAYLOAD,2021-12-04 22:00:00,15.73254634,0.0001924,53.2189,27.2181,23.6108,121.7899,-0.00047981,-0.00067582,0.0,0 STARLINK-3110,1 49420U 21104N   21338.91667824 -.00067582  00000-0 -47981-3 0  9999,2 49420  53.2189  27.2181 0001924  23.6108 121.7899 15.73254634  4669,6727.739000000001,91.53,350.899,348.31,0.0
49420.0,STARLINK-3110,PAYLOAD,2021-12-05 14:00:01,15.73144354,0.0002192,53.2188,23.921,16.4767,306.8305,0.00051566,0.00072204,0.0,0 STARLINK-3110,1 49420U 21104N   21339.58334491  .00072204  00000-0  51566-3 0  9993,2 49420  53.2188  23.9210 0002192  16.4767 306.8305 15.73144354  4769,6728.054,91.536,351.394,348.444,0.0
49420.0,STARLINK-3110,PAYLOAD,2021-12-05 22:00:00,15.73166931,0.0001936,53.2187,22.2696,18.3041,33.897,0.00033023,0.00045915,0.0,0 STARLINK-3110,1 49420U 21104N   21339.91667824  .00045915  00000-0  33023-3 0  9996,2 49420  53.2187  22.2696 0001936  18.3041  33.8970 15.73166931  3713,6727.989000000001,91.535,351.157,348.552,0.0
49420.0,STARLINK-3110,PAYLOAD,2021-12-06 06:00:00,15.73221266,0.0002027,53.2186,20.6207,20.5976,120.5124,-2.6635e-05,-4.361e-05,0.0,0 STARLINK-3110,1 49420U 21104N   21340.25001157 -.00004361  00000-0 -26635-4 0  9990,2 49420  53.2186  20.6207 0002027  20.5976 120.5124 15.73221266  4872,6727.835,91.532,351.06300000000016,348.336,0.0
49420.0,STARLINK-3110,PAYLOAD,2021-12-06 14:00:01,15.73198768,0.0002233,53.2183,18.9726,16.8573,213.2686,0.00045831,0.00064194,0.0,0 STARLINK-3110,1 49420U 21104N   21340.58335648  .00064194  00000-0  45831-3 0  9997,2 49420  53.2183  18.9726 0002233  16.8573 213.2686 15.73198768  3743,6727.899,91.533,351.266,348.261,0.0
49420.0,STARLINK-3110,PAYLOAD,2021-12-06 22:00:00,15.73219243,0.0001989,53.2186,17.3209,17.0025,302.0194,-0.00027331,-0.00038836,0.0,0 STARLINK-3110,1 49420U 21104N   21340.91667824 -.00038836  00000-0 -27331-3 0  9999,2 49420  53.2186  17.3209 0001989  17.0025 302.0194 15.73219243  3728,6727.84,91.532,351.043,348.367,0.0
49420.0,STARLINK-3110,PAYLOAD,2021-12-07 14:00:01,15.73190077,0.0002357,53.2187,14.0238,15.786,121.1065,0.00044001,0.00061564,0.0,0 STARLINK-3110,1 49420U 21104N   21341.58334491  .00061564  00000-0  44001-3 0  9999,2 49420  53.2187  14.0238 0002357  15.7860 121.1065 15.73190077  5077,6727.9230000000025,91.534,351.374,348.20300000000015,0.0
49420.0,STARLINK-3110,PAYLOAD,2021-12-07 22:00:00,15.73225642,0.0002164,53.2187,12.3722,19.7574,206.0786,-0.00027545,-0.00039146,0.0,0 STARLINK-3110,1 49420U 21104N   21341.91667824 -.00039146  00000-0 -27545-3 0  9992,2 49420  53.2187  12.3722 0002164  19.7574 206.0786 15.73225642  5135,6727.821999999999,91.532,351.14300000000014,348.231,0.0
49420.0,STARLINK-3110,PAYLOAD,2021-12-08 06:00:02,15.73249012,0.0002304,53.2187,10.7236,22.8404,292.0253,-0.0006551,-0.00091769,0.0,0 STARLINK-3110,1 49420U 21104N   21342.25002315 -.00091769  00000-0 -65510-3 0  9991,2 49420  53.2187  10.7236 0002304  22.8404 292.0253 15.73249012  5186,6727.755,91.53,351.171,348.07,0.0
49420.0,STARLINK-3110,PAYLOAD,2021-12-08 14:00:01,15.73179723,0.0002551,53.2183,9.0753,22.6907,21.0568,0.00033244,0.00046256,0.0,0 STARLINK-3110,1 49420U 21104N   21342.58334491  .00046256  00000-0  33244-3 0  9998,2 49420  53.2183   9.0753 0002551  22.6907  21.0568 15.73179723  5233,6727.953,91.534,351.534,348.102,0.0
49420.0,STARLINK-3110,PAYLOAD,2021-12-08 22:00:00,15.73179515,0.0002293,53.2186,7.4238,25.0422,107.6341,0.00043054,0.00060188,0.0,0 STARLINK-3110,1 49420U 21104N   21342.91667824  .00060188  00000-0  43054-3 0  9994,2 49420  53.2186   7.4238 0002293  25.0422 107.6341 15.73179515  3718,6727.954000000002,91.534,351.361,348.276,0.0
49420.0,STARLINK-3110,PAYLOAD,2021-12-09 06:00:00,15.73254577,0.0002415,53.219,5.7753,24.4257,197.1727,-0.00092494,-0.00128786,0.0,0 STARLINK-3110,1 49420U 21104N   21343.25001157 -.00128786  00000-0 -92494-3 0  9996,2 49420  53.2190   5.7753 0002415  24.4257 197.1727 15.73254577  5346,6727.74,91.53,351.22900000000016,347.98,0.0
49420.0,STARLINK-3110,PAYLOAD,2021-12-09 11:09:39,15.73224358,0.0002522,53.2191,4.7109,28.1439,331.9717,0.00014528,0.00019839,0.0,0 STARLINK-3110,1 49420U 21104N   21343.46503488  .00019839  00000-0  14528-3 0  9991,2 49420  53.2191   4.7109 0002522  28.1439 331.9717 15.73224358  5377,6727.826,91.532,351.38699999999994,347.994,0.0
49420.0,STARLINK-3110,PAYLOAD,2021-12-09 22:00:00,15.73150797,0.0002342,53.2188,2.4755,22.5356,16.9107,0.00043664,0.0006098,0.0,0 STARLINK-3110,1 49420U 21104N   21343.91667824  .00060980  00000-0  43664-3 0  9992,2 49420  53.2188   2.4755 0002342  22.5356  16.9107 15.73150797  3692,6728.035,91.536,351.476,348.325,0.0
